[{"OBJECT_NAME":"STARLINK-35375","OBJECT_ID":"2025-235H","EPOCH":"2026-03-09T19:14:47.323968","MEAN_MOTION":15.30194058,"ECCENTRICITY":0.00011095,"INCLINATION":53.1598,"RA_OF_ASC_NODE":245.1064,"ARG_OF_PERICENTER":95.7344,"MEAN_ANOMALY":264.3784,"EPHEMERIS_TYPE":0,"CLASSIFICATION_TYPE":"U","NORAD_CAT_ID":66065,"ELEMENT_SET_NO":999,"REV_AT_EPOCH":2293,"BSTAR":0.0012784535,"MEAN_MOTION_DOT":0.0003769,"MEAN_MOTION_DDOT":0},{"OBJECT_NAME":"FENGYUN 1C DEB","OBJECT_ID":"1999-025AUA","EPOCH":"2026-03-09T22:20:03.086592","MEAN_MOTION":15.37519861,"ECCENTRICITY":0.00616014,"INCLINATION":98.7858,"RA_OF_ASC_NODE":60.8335,"ARG_OF_PERICENTER":230.1589,"MEAN_ANOMALY":129.4222,"EPHEMERIS_TYPE":0,"CLASSIFICATION_TYPE":"U","NORAD_CAT_ID":30764,"ELEMENT_SET_NO":999,"REV_AT_EPOCH":2558,"BSTAR":0.00082447851,"MEAN_MOTION_DOT":0.00032356,"MEAN_MOTION_DDOT":0}]
